{"type": "FeatureCollection", "features": [{"type": "Feature", "geometry": {"type": "Polygon", "coordinates": [[[0, 0], [460, 0], [460, 420], [0, 420], [0, 0]]]}, "properties": {"id": 1, "type": "BACKGROUND", "backgroundType": "GRASS", "raised": false}}, {"type": "Feature", "geometry": {"type": "Polygon", "coordinates": [[[165.59, 152.0], [160.73, 173.9], [151.8, 198.58], [126.78, 212.44], [98.16, 208.6], [76.7, 193.31], [66.5, 172.45], [45.44, 152.0], [65.06, 130.9], [78.68, 113.01], [99.75, 101.93], [124.64, 100.29], [153.35, 103.6], [162.4, 129.35], [165.59, 152.0]]]}, "properties": {"id": 2, "type": "BACKGROUND", "backgroundType": "MARSH", "raised": false}}, {"type": "Feature", "geometry": {"type": "Polygon", "coordinates": [[[166.43, 248.0], [156.44, 274.03], [136.57, 289.07], [118.66, 307.43], [94.57, 301.66], [70.71, 295.41], [47.52, 278.17], [49.31, 248.0], [62.94, 225.78], [74.69, 205.93], [91.95, 182.03], [117.08, 195.97], [139.56, 202.92], [149.09, 225.76], [166.43, 248.0]]]}, "properties": {"id": 3, "type": "BACKGROUND", "backgroundType": "MARSH", "raised": false}}, {"type": "Feature", "geometry": {"type": "Polygon", "coordinates": [[[204.25, 316.0], [199.27, 335.93], [177.55, 345.01], [162.52, 362.09], [137.69, 361.3], [115.55, 352.29], [101.95, 335.44], [92.51, 316.0], [100.38, 295.93], [114.82, 278.94], [139.17, 276.13], [159.62, 280.58], [186.08, 277.99], [198.54, 296.37], [204.25, 316.0]]]}, "properties": {"id": 4, "type": "BACKGROUND", "backgroundType": "MARSH", "raised": false}}, {"type": "Feature", "geometry": {"type": "Polygon", "coordinates": [[[213.67, 100.0], [211.26, 113.89], [207.57, 132.39], [185.01, 132.28], [167.53, 130.36], [152.05, 124.57], [136.02, 115.75], [133.5, 100.0], [133.52, 83.26], [149.98, 73.3], [167.27, 68.7], [186.65, 61.83], [200.31, 75.06], [216.5, 84.04], [213.67, 100.0]]]}, "properties": {"id": 5, "type": "BACKGROUND", "backgroundType": "MARSH", "raised": false}}, {"type": "Feature", "geometry": {"type": "Polygon", "coordinates": [[[172.33, 104.0], [158.13, 122.31], [146.94, 141.04], [120.1, 144.22], [95.57, 145.3], [67.34, 142.68], [58.69, 122.02], [42.63, 104.0], [61.14, 86.88], [73.45, 71.14], [96.79, 66.75], [119.63, 65.33], [145.98, 67.87], [162.49, 84.09], [172.33, 104.0]]]}, "properties": {"id": 6, "type": "BACKGROUND", "backgroundType": "MARSH", "raised": false}}, {"type": "Feature", "geometry": {"type": "Polygon", "coordinates": [[[139.38, 170.0], [127.35, 180.13], [121.59, 192.18], [106.0, 194.63], [90.79, 191.64], [79.42, 182.61], [83.51, 170.0], [82.36, 158.79], [91.71, 149.67], [106.0, 146.69], [122.37, 146.71], [132.53, 157.42], [139.38, 170.0]]]}, "properties": {"id": 1, "type": "WATER"}}, {"type": "Feature", "geometry": {"type": "Polygon", "coordinates": [[[116.3, 256.0], [112.12, 269.19], [105.92, 282.04], [94.0, 283.54], [81.19, 283.99], [76.13, 269.01], [68.85, 256.0], [69.97, 238.51], [83.41, 232.87], [94.0, 225.23], [104.93, 232.12], [113.13, 242.08], [116.3, 256.0]]]}, "properties": {"id": 2, "type": "WATER"}}, {"type": "Feature", "geometry": {"type": "Polygon", "coordinates": [[[171.48, 320.0], [165.36, 328.52], [156.04, 333.25], [146.0, 332.94], [133.55, 336.43], [126.37, 328.63], [124.71, 320.0], [130.24, 313.07], [135.41, 306.02], [146.0, 303.91], [157.7, 304.57], [164.97, 311.65], [171.48, 320.0]]]}, "properties": {"id": 3, "type": "WATER"}}, {"type": "Feature", "geometry": {"type": "Polygon", "coordinates": [[[163.18, 212.0], [164.94, 222.14], [158.35, 226.94], [152.0, 228.36], [145.94, 226.24], [140.41, 221.08], [140.58, 212.0], [141.21, 203.55], [145.76, 197.34], [152.0, 189.74], [158.59, 196.51], [161.94, 204.21], [163.18, 212.0]]]}, "properties": {"id": 4, "type": "WATER"}}, {"type": "Feature", "geometry": {"type": "Polygon", "coordinates": [[[193.49, 108.0], [192.32, 115.07], [183.24, 117.4], [176.0, 119.46], [166.58, 120.24], [159.14, 115.3], [157.69, 108.0], [164.86, 103.18], [168.04, 97.66], [176.0, 93.49], [184.04, 97.56], [189.81, 102.02], [193.49, 108.0]]]}, "properties": {"id": 5, "type": "WATER"}}, {"type": "Feature", "geometry": {"type": "Polygon", "coordinates": [[[191.34, 148.0], [192.8, 164.52], [179.56, 171.11], [168.0, 173.81], [154.47, 175.03], [145.09, 163.26], [138.95, 148.0], [143.0, 131.35], [155.16, 122.35], [168.0, 117.74], [181.49, 121.04], [189.54, 133.65], [191.34, 148.0]]]}, "properties": {"id": 7, "type": "BACKGROUND", "backgroundType": "FOREST", "raised": false}}, {"type": "Feature", "geometry": {"type": "Polygon", "coordinates": [[[184.15, 272.0], [184.42, 286.02], [173.06, 292.76], [162.0, 296.24], [148.83, 296.72], [139.74, 285.92], [137.45, 272.0], [142.91, 260.06], [151.66, 252.59], [162.0, 245.63], [175.46, 246.74], [183.99, 258.25], [184.15, 272.0]]]}, "properties": {"id": 8, "type": "BACKGROUND", "backgroundType": "FOREST", "raised": false}}, {"type": "Feature", "geometry": {"type": "Polygon", "coordinates": [[[405.37, 232.0], [394.03, 262.93], [362.13, 285.65], [319.74, 281.12], [286.52, 262.61], [272.85, 232.0], [289.97, 203.36], [319.56, 182.43], [360.92, 181.26], [396.52, 199.64], [405.37, 232.0]]]}, "properties": {"id": 9, "type": "BACKGROUND", "backgroundType": "WHEAT", "raised": false}}, {"type": "Feature", "geometry": {"type": "Polygon", "coordinates": [[[411.69, 300.0], [402.07, 329.1], [371.16, 347.17], [334.78, 342.39], [308.21, 325.45], [293.5, 300.0], [305.65, 273.06], [332.31, 251.52], [371.25, 252.61], [401.53, 271.21], [411.69, 300.0]]]}, "properties": {"id": 10, "type": "BACKGROUND", "backgroundType": "TILLED", "raised": false}}, {"type": "Feature", "geometry": {"type": "Polygon", "coordinates": [[[317.01, 330.0], [310.02, 358.04], [277.86, 375.36], [237.5, 376.81], [210.99, 355.34], [199.34, 330.0], [211.38, 304.87], [239.89, 288.66], [278.06, 284.2], [304.45, 304.96], [317.01, 330.0]]]}, "properties": {"id": 11, "type": "BACKGROUND", "backgroundType": "GRAIN", "raised": false}}, {"type": "Feature", "geometry": {"type": "Polygon", "coordinates": [[[349.75, 128.0], [345.46, 154.91], [317.19, 171.12], [281.84, 173.53], [258.31, 152.68], [248.64, 128.0], [254.27, 100.93], [282.78, 84.83], [316.03, 87.8], [345.3, 101.18], [349.75, 128.0]]]}, "properties": {"id": 12, "type": "BACKGROUND", "backgroundType": "SHEEP_TEXTURE_TYPE", "raised": false}}, {"type": "Feature", "geometry": {"type": "Polygon", "coordinates": [[[246.28, 292.0], [229.58, 312.15], [210.89, 329.85], [182.76, 325.67], [155.17, 316.51], [154.44, 292.0], [155.96, 267.97], [181.27, 254.55], [211.23, 253.28], [236.93, 267.43], [246.28, 292.0]]]}, "properties": {"id": 13, "type": "BACKGROUND", "backgroundType": "PIGS_TEXTURE_TYPE", "raised": false}}, {"type": "Feature", "geometry": {"type": "Polygon", "coordinates": [[[255.03, 200.0], [247.49, 223.44], [225.42, 237.54], [198.52, 237.72], [176.92, 223.17], [166.89, 200.0], [177.78, 177.4], [198.11, 161.14], [224.53, 164.94], [246.47, 177.23], [255.03, 200.0]]]}, "properties": {"id": 14, "type": "BACKGROUND", "backgroundType": "LAWN_TEXTURE_TYPE", "raised": false}}, {"type": "Feature", "geometry": {"type": "Polygon", "coordinates": [[[197.0, 187.0], [223.0, 187.0], [223.0, 213.0], [197.0, 213.0], [197.0, 187.0]]]}, "properties": {"id": 1, "type": "BUILDING", "name": "Sedgewater Market", "buildingType": "MARKET", "material": "PAVEMENT"}}, {"type": "Feature", "geometry": {"type": "Polygon", "coordinates": [[[203.0, 168.0], [217.0, 168.0], [217.0, 180.0], [203.0, 180.0], [203.0, 168.0]]]}, "properties": {"id": 2, "type": "BUILDING", "name": "The Drowned Bell", "buildingType": "INN", "material": "WOOD"}}, {"type": "Feature", "geometry": {"type": "Polygon", "coordinates": [[[186.25, 188.5], [186.25, 199.5], [177.75, 199.5], [177.75, 188.5], [186.25, 188.5]]]}, "properties": {"id": 3, "type": "BUILDING", "name": "Hobb's Forge", "buildingType": "ARTISAN", "material": "WOOD"}}, {"type": "Feature", "geometry": {"type": "Polygon", "coordinates": [[[242.0, 184.75], [242.0, 195.25], [234.0, 195.25], [234.0, 184.75], [242.0, 184.75]]]}, "properties": {"id": 4, "type": "BUILDING", "name": "Marrow and Daughter, Chandlers", "buildingType": "SHOP", "material": "WOOD"}}, {"type": "Feature", "geometry": {"type": "Polygon", "coordinates": [[[242.0, 203.75], [242.0, 214.25], [234.0, 214.25], [234.0, 203.75], [242.0, 203.75]]]}, "properties": {"id": 5, "type": "BUILDING", "name": "The Reedcutters' Stall", "buildingType": "SHOP", "material": "WOOD"}}, {"type": "Feature", "geometry": {"type": "Polygon", "coordinates": [[[219.0, 224.5], [229.0, 224.5], [229.0, 231.5], [219.0, 231.5], [219.0, 224.5]]]}, "properties": {"id": 6, "type": "BUILDING", "name": "Old Tass's Physick", "buildingType": "SERVICE", "material": "WOOD"}}, {"type": "Feature", "geometry": {"type": "Polygon", "coordinates": [[[184.0, 225.25], [196.0, 225.25], [196.0, 234.75], [184.0, 234.75], [184.0, 225.25]]]}, "properties": {"id": 7, "type": "BUILDING", "name": "Shrine of the Still Water", "buildingType": "RELIGIOUS", "material": "STONE_BRICK"}}, {"type": "Feature", "geometry": {"type": "Polygon", "coordinates": [[[241.0, 225.0], [255.0, 225.0], [255.0, 235.0], [241.0, 235.0], [241.0, 225.0]]]}, "properties": {"id": 8, "type": "BUILDING", "name": "The Tithe Barn", "buildingType": "WAREHOUSE", "material": "WOOD"}}, {"type": "Feature", "geometry": {"type": "Polygon", "coordinates": [[[243.75, 169.5], [256.25, 169.5], [256.25, 178.5], [243.75, 178.5], [243.75, 169.5]]]}, "properties": {"id": 9, "type": "BUILDING", "name": "Fenwold Stables", "buildingType": "FARM", "material": "WOOD"}}, {"type": "Feature", "geometry": {"type": "Polygon", "coordinates": [[[190.0, 204.75], [190.0, 215.25], [182.0, 215.25], [182.0, 204.75], [190.0, 204.75]]]}, "properties": {"id": 10, "type": "BUILDING", "name": "Sedge and Withy", "buildingType": "SHOP", "material": "WOOD"}}, {"type": "Feature", "geometry": {"type": "Polygon", "coordinates": [[[171.56, 160.45], [182.32, 162.74], [180.44, 171.55], [169.68, 169.26], [171.56, 160.45]]]}, "properties": {"id": 11, "type": "BUILDING", "name": "Kettleby Cottage", "buildingType": "RESIDENCE", "material": "WOOD"}}, {"type": "Feature", "geometry": {"type": "Polygon", "coordinates": [[[159.93, 212.31], [170.82, 210.78], [172.07, 219.69], [161.18, 221.22], [159.93, 212.31]]]}, "properties": {"id": 12, "type": "BUILDING", "name": "Wren's Cot", "buildingType": "RESIDENCE", "material": "WOOD"}}, {"type": "Feature", "geometry": {"type": "Polygon", "coordinates": [[[174.91, 247.04], [185.87, 248.0], [185.09, 256.96], [174.13, 256.0], [174.91, 247.04]]]}, "properties": {"id": 13, "type": "BUILDING", "name": "The Old Ferryman's", "buildingType": "RESIDENCE", "material": "WOOD"}}, {"type": "Feature", "geometry": {"type": "Polygon", "coordinates": [[[216.06, 252.1], [227.0, 250.95], [227.94, 259.9], [217.0, 261.05], [216.06, 252.1]]]}, "properties": {"id": 14, "type": "BUILDING", "name": "Danner's Cot", "buildingType": "RESIDENCE", "material": "WOOD"}}, {"type": "Feature", "geometry": {"type": "Polygon", "coordinates": [[[251.36, 246.61], [262.2, 248.52], [260.64, 257.39], [249.8, 255.48], [251.36, 246.61]]]}, "properties": {"id": 15, "type": "BUILDING", "name": "Hallow Cottage", "buildingType": "RESIDENCE", "material": "WOOD"}}, {"type": "Feature", "geometry": {"type": "Polygon", "coordinates": [[[260.2, 193.89], [271.17, 193.13], [271.8, 202.11], [260.83, 202.87], [260.2, 193.89]]]}, "properties": {"id": 16, "type": "BUILDING", "name": "Pye's Cot", "buildingType": "RESIDENCE", "material": "WOOD"}}, {"type": "Feature", "geometry": {"type": "Polygon", "coordinates": [[[140.3, 179.81], [150.0, 177.39], [151.7, 184.19], [142.0, 186.61], [140.3, 179.81]]]}, "properties": {"id": 17, "type": "BUILDING", "name": "Marsh Cot", "buildingType": "RESIDENCE", "material": "WOOD"}}, {"type": "Feature", "geometry": {"type": "Polygon", "coordinates": [[[137.61, 237.76], [147.49, 239.33], [146.39, 246.24], [136.51, 244.67], [137.61, 237.76]]]}, "properties": {"id": 18, "type": "BUILDING", "name": "Bogsen's Hut", "buildingType": "RESIDENCE", "material": "WOOD"}}, {"type": "Feature", "geometry": {"type": "Polygon", "coordinates": [[[144.66, 265.04], [154.61, 264.0], [155.34, 270.96], [145.39, 272.0], [144.66, 265.04]]]}, "properties": {"id": 19, "type": "BUILDING", "name": "The Eelman's", "buildingType": "RESIDENCE", "material": "WOOD"}}, {"type": "Feature", "geometry": {"type": "Polygon", "coordinates": [[[294.0, 135.5], [310.0, 135.5], [310.0, 148.5], [294.0, 148.5], [294.0, 135.5]]]}, "properties": {"id": 20, "type": "BUILDING", "name": "Sedgewater Keep", "buildingType": "LAW_ENFORCEMENT", "material": "STONE_BRICK"}}, {"type": "Feature", "geometry": {"type": "Polygon", "coordinates": [[[295.5, 158.25], [308.5, 158.25], [308.5, 169.75], [295.5, 169.75], [295.5, 158.25]]]}, "properties": {"id": 21, "type": "BUILDING", "name": "The Garrison Range", "buildingType": "FACTION", "material": "STONE_BRICK"}}, {"type": "Feature", "geometry": {"type": "LineString", "coordinates": [[330.53, 152.0], [331.22, 162.89]]}, "properties": {"id": 1, "type": "EDGE", "edgeType": "STONE_FENCE"}}, {"type": "Feature", "geometry": {"type": "LineString", "coordinates": [[331.22, 162.89], [322.32, 170.29]]}, "properties": {"id": 2, "type": "EDGE", "edgeType": "STONE_FENCE"}}, {"type": "Feature", "geometry": {"type": "LineString", "coordinates": [[322.32, 170.29], [313.81, 177.66]]}, "properties": {"id": 3, "type": "EDGE", "edgeType": "STONE_FENCE"}}, {"type": "Feature", "geometry": {"type": "LineString", "coordinates": [[313.81, 177.66], [302.0, 180.11]]}, "properties": {"id": 4, "type": "EDGE", "edgeType": "STONE_FENCE"}}, {"type": "Feature", "geometry": {"type": "LineString", "coordinates": [[302.0, 180.11], [290.18, 177.68]]}, "properties": {"id": 5, "type": "EDGE", "edgeType": "STONE_FENCE"}}, {"type": "Feature", "geometry": {"type": "LineString", "coordinates": [[290.18, 177.68], [281.29, 170.64]]}, "properties": {"id": 6, "type": "EDGE", "edgeType": "STONE_FENCE"}}, {"type": "Feature", "geometry": {"type": "LineString", "coordinates": [[281.29, 170.64], [274.78, 162.15]]}, "properties": {"id": 7, "type": "EDGE", "edgeType": "STONE_FENCE"}}, {"type": "Feature", "geometry": {"type": "LineString", "coordinates": [[274.78, 162.15], [271.2, 152.0]]}, "properties": {"id": 8, "type": "EDGE", "edgeType": "STONE_FENCE"}}, {"type": "Feature", "geometry": {"type": "LineString", "coordinates": [[271.2, 152.0], [272.73, 141.09]]}, "properties": {"id": 9, "type": "EDGE", "edgeType": "STONE_FENCE"}}, {"type": "Feature", "geometry": {"type": "LineString", "coordinates": [[272.73, 141.09], [280.37, 132.54]]}, "properties": {"id": 10, "type": "EDGE", "edgeType": "STONE_FENCE"}}, {"type": "Feature", "geometry": {"type": "LineString", "coordinates": [[280.37, 132.54], [290.46, 126.93]]}, "properties": {"id": 11, "type": "EDGE", "edgeType": "STONE_FENCE"}}, {"type": "Feature", "geometry": {"type": "LineString", "coordinates": [[290.46, 126.93], [302.0, 125.36]]}, "properties": {"id": 12, "type": "EDGE", "edgeType": "STONE_FENCE"}}, {"type": "Feature", "geometry": {"type": "LineString", "coordinates": [[302.0, 125.36], [313.35, 127.34]]}, "properties": {"id": 13, "type": "EDGE", "edgeType": "STONE_FENCE"}}, {"type": "Feature", "geometry": {"type": "LineString", "coordinates": [[313.35, 127.34], [323.77, 132.41]]}, "properties": {"id": 14, "type": "EDGE", "edgeType": "STONE_FENCE"}}, {"type": "Feature", "geometry": {"type": "LineString", "coordinates": [[323.77, 132.41], [329.48, 141.76]]}, "properties": {"id": 15, "type": "EDGE", "edgeType": "STONE_FENCE"}}, {"type": "Feature", "geometry": {"type": "LineString", "coordinates": [[329.48, 141.76], [330.53, 152.0]]}, "properties": {"id": 16, "type": "EDGE", "edgeType": "STONE_FENCE"}}, {"type": "Feature", "geometry": {"type": "Polygon", "coordinates": [[[321.53, 227.15], [336.3, 224.54], [338.47, 236.85], [323.7, 239.46], [321.53, 227.15]]]}, "properties": {"id": 22, "type": "BUILDING", "name": "Highfield House", "buildingType": "RESIDENCE", "material": "WOOD"}}, {"type": "Feature", "geometry": {"type": "Polygon", "coordinates": [[[345.32, 288.88], [360.21, 290.71], [358.68, 303.12], [343.79, 301.29], [345.32, 288.88]]]}, "properties": {"id": 23, "type": "BUILDING", "name": "Wheatmoor", "buildingType": "RESIDENCE", "material": "WOOD"}}, {"type": "Feature", "geometry": {"type": "Polygon", "coordinates": [[[287.98, 308.43], [302.93, 307.12], [304.02, 319.57], [289.07, 320.88], [287.98, 308.43]]]}, "properties": {"id": 24, "type": "BUILDING", "name": "Tallowbeck Grange", "buildingType": "RESIDENCE", "material": "WOOD"}}, {"type": "Feature", "geometry": {"type": "Polygon", "coordinates": [[[237.96, 308.33], [252.64, 311.45], [250.04, 323.67], [235.36, 320.55], [237.96, 308.33]]]}, "properties": {"id": 25, "type": "BUILDING", "name": "Sedgemoor House", "buildingType": "RESIDENCE", "material": "WOOD"}}, {"type": "Feature", "geometry": {"type": "LineString", "coordinates": [[300, 262], [352, 256]]}, "properties": {"id": 17, "type": "EDGE", "edgeType": "STONE_FENCE"}}, {"type": "Feature", "geometry": {"type": "LineString", "coordinates": [[352, 256], [392, 268]]}, "properties": {"id": 18, "type": "EDGE", "edgeType": "STONE_FENCE"}}, {"type": "Feature", "geometry": {"type": "LineString", "coordinates": [[268, 288], [306, 276]]}, "properties": {"id": 19, "type": "EDGE", "edgeType": "STONE_FENCE"}}, {"type": "Feature", "geometry": {"type": "LineString", "coordinates": [[306, 276], [318, 246]]}, "properties": {"id": 20, "type": "EDGE", "edgeType": "STONE_FENCE"}}, {"type": "Feature", "geometry": {"type": "LineString", "coordinates": [[226, 292], [252, 282]]}, "properties": {"id": 21, "type": "EDGE", "edgeType": "STONE_FENCE"}}, {"type": "Feature", "geometry": {"type": "LineString", "coordinates": [[252, 282], [284, 288]]}, "properties": {"id": 22, "type": "EDGE", "edgeType": "STONE_FENCE"}}, {"type": "Feature", "geometry": {"type": "LineString", "coordinates": [[370, 210], [386, 244]]}, "properties": {"id": 23, "type": "EDGE", "edgeType": "STONE_FENCE"}}, {"type": "Feature", "geometry": {"type": "LineString", "coordinates": [[386, 244], [376, 282]]}, "properties": {"id": 24, "type": "EDGE", "edgeType": "STONE_FENCE"}}, {"type": "Feature", "geometry": {"type": "LineString", "coordinates": [[6, 236], [68, 230]]}, "properties": {"id": 25, "type": "EDGE", "edgeType": "MAIN_ROAD"}}, {"type": "Feature", "geometry": {"type": "LineString", "coordinates": [[68, 230], [128, 226]]}, "properties": {"id": 26, "type": "EDGE", "edgeType": "MAIN_ROAD"}}, {"type": "Feature", "geometry": {"type": "LineString", "coordinates": [[128, 226], [188, 221]]}, "properties": {"id": 27, "type": "EDGE", "edgeType": "MAIN_ROAD"}}, {"type": "Feature", "geometry": {"type": "LineString", "coordinates": [[188, 221], [240, 216]]}, "properties": {"id": 28, "type": "EDGE", "edgeType": "MAIN_ROAD"}}, {"type": "Feature", "geometry": {"type": "LineString", "coordinates": [[240, 216], [292, 208]]}, "properties": {"id": 29, "type": "EDGE", "edgeType": "MAIN_ROAD"}}, {"type": "Feature", "geometry": {"type": "LineString", "coordinates": [[292, 208], [352, 202]]}, "properties": {"id": 30, "type": "EDGE", "edgeType": "MAIN_ROAD"}}, {"type": "Feature", "geometry": {"type": "LineString", "coordinates": [[352, 202], [452, 196]]}, "properties": {"id": 31, "type": "EDGE", "edgeType": "MAIN_ROAD"}}, {"type": "Feature", "geometry": {"type": "LineString", "coordinates": [[292, 208], [298, 186]]}, "properties": {"id": 32, "type": "EDGE", "edgeType": "ROAD"}}, {"type": "Feature", "geometry": {"type": "LineString", "coordinates": [[298, 186], [302, 172]]}, "properties": {"id": 33, "type": "EDGE", "edgeType": "ROAD"}}, {"type": "Feature", "geometry": {"type": "LineString", "coordinates": [[195.0, 185.0], [225.0, 185.0]]}, "properties": {"id": 34, "type": "EDGE", "edgeType": "SMALL_ROAD"}}, {"type": "Feature", "geometry": {"type": "LineString", "coordinates": [[225.0, 185.0], [225.0, 215.0]]}, "properties": {"id": 35, "type": "EDGE", "edgeType": "SMALL_ROAD"}}, {"type": "Feature", "geometry": {"type": "LineString", "coordinates": [[225.0, 215.0], [195.0, 215.0]]}, "properties": {"id": 36, "type": "EDGE", "edgeType": "SMALL_ROAD"}}, {"type": "Feature", "geometry": {"type": "LineString", "coordinates": [[195.0, 215.0], [195.0, 185.0]]}, "properties": {"id": 37, "type": "EDGE", "edgeType": "SMALL_ROAD"}}, {"type": "Feature", "geometry": {"type": "LineString", "coordinates": [[210, 185], [210, 170]]}, "properties": {"id": 38, "type": "EDGE", "edgeType": "SMALL_ROAD"}}, {"type": "Feature", "geometry": {"type": "LineString", "coordinates": [[195, 215], [176, 224]]}, "properties": {"id": 39, "type": "EDGE", "edgeType": "SMALL_ROAD"}}, {"type": "Feature", "geometry": {"type": "LineString", "coordinates": [[176, 224], [168, 244]]}, "properties": {"id": 40, "type": "EDGE", "edgeType": "SMALL_ROAD"}}, {"type": "Feature", "geometry": {"type": "LineString", "coordinates": [[168, 244], [180, 258]]}, "properties": {"id": 41, "type": "EDGE", "edgeType": "SMALL_ROAD"}}, {"type": "Feature", "geometry": {"type": "LineString", "coordinates": [[225, 215], [232, 240]]}, "properties": {"id": 42, "type": "EDGE", "edgeType": "SMALL_ROAD"}}, {"type": "Feature", "geometry": {"type": "LineString", "coordinates": [[232, 240], [250, 252]]}, "properties": {"id": 43, "type": "EDGE", "edgeType": "SMALL_ROAD"}}, {"type": "Feature", "geometry": {"type": "LineString", "coordinates": [[195, 185], [172, 174]]}, "properties": {"id": 44, "type": "EDGE", "edgeType": "SMALL_ROAD"}}, {"type": "Feature", "geometry": {"type": "LineString", "coordinates": [[172, 174], [156, 178]]}, "properties": {"id": 45, "type": "EDGE", "edgeType": "SMALL_ROAD"}}, {"type": "Feature", "geometry": {"type": "LineString", "coordinates": [[225, 185], [248, 180]]}, "properties": {"id": 46, "type": "EDGE", "edgeType": "SMALL_ROAD"}}, {"type": "Feature", "geometry": {"type": "LineString", "coordinates": [[248, 180], [262, 192]]}, "properties": {"id": 47, "type": "EDGE", "edgeType": "SMALL_ROAD"}}, {"type": "Feature", "geometry": {"type": "LineString", "coordinates": [[162, 176], [160, 196]]}, "properties": {"id": 48, "type": "EDGE", "edgeType": "DIRT_ROAD"}}, {"type": "Feature", "geometry": {"type": "LineString", "coordinates": [[160, 196], [158, 216]]}, "properties": {"id": 49, "type": "EDGE", "edgeType": "DIRT_ROAD"}}, {"type": "Feature", "geometry": {"type": "LineString", "coordinates": [[158, 216], [160, 238]]}, "properties": {"id": 50, "type": "EDGE", "edgeType": "DIRT_ROAD"}}, {"type": "Feature", "geometry": {"type": "LineString", "coordinates": [[160, 238], [168, 262]]}, "properties": {"id": 51, "type": "EDGE", "edgeType": "DIRT_ROAD"}}, {"type": "Feature", "geometry": {"type": "LineString", "coordinates": [[160, 190], [152, 184]]}, "properties": {"id": 52, "type": "EDGE", "edgeType": "DIRT_ROAD"}}, {"type": "Feature", "geometry": {"type": "LineString", "coordinates": [[159, 240], [148, 242]]}, "properties": {"id": 53, "type": "EDGE", "edgeType": "DIRT_ROAD"}}, {"type": "Feature", "geometry": {"type": "LineString", "coordinates": [[164, 264], [156, 268]]}, "properties": {"id": 54, "type": "EDGE", "edgeType": "DIRT_ROAD"}}, {"type": "Feature", "geometry": {"type": "LineString", "coordinates": [[320, 204], [328, 226]]}, "properties": {"id": 55, "type": "EDGE", "edgeType": "DIRT_ROAD"}}, {"type": "Feature", "geometry": {"type": "LineString", "coordinates": [[328, 226], [334, 250]]}, "properties": {"id": 56, "type": "EDGE", "edgeType": "DIRT_ROAD"}}, {"type": "Feature", "geometry": {"type": "LineString", "coordinates": [[334, 250], [350, 282]]}, "properties": {"id": 57, "type": "EDGE", "edgeType": "DIRT_ROAD"}}, {"type": "Feature", "geometry": {"type": "LineString", "coordinates": [[350, 282], [352, 300]]}, "properties": {"id": 58, "type": "EDGE", "edgeType": "DIRT_ROAD"}}, {"type": "Feature", "geometry": {"type": "LineString", "coordinates": [[250, 252], [272, 286]]}, "properties": {"id": 59, "type": "EDGE", "edgeType": "DIRT_ROAD"}}, {"type": "Feature", "geometry": {"type": "LineString", "coordinates": [[272, 286], [294, 308]]}, "properties": {"id": 60, "type": "EDGE", "edgeType": "DIRT_ROAD"}}, {"type": "Feature", "geometry": {"type": "LineString", "coordinates": [[272, 286], [250, 302]]}, "properties": {"id": 61, "type": "EDGE", "edgeType": "DIRT_ROAD"}}, {"type": "Feature", "geometry": {"type": "LineString", "coordinates": [[250, 302], [244, 316]]}, "properties": {"id": 62, "type": "EDGE", "edgeType": "DIRT_ROAD"}}, {"type": "Feature", "geometry": {"type": "LineString", "coordinates": [[158, 220], [124, 244]]}, "properties": {"id": 63, "type": "EDGE", "edgeType": "TRAIL"}}, {"type": "Feature", "geometry": {"type": "LineString", "coordinates": [[124, 244], [108, 270]]}, "properties": {"id": 64, "type": "EDGE", "edgeType": "TRAIL"}}, {"type": "Feature", "geometry": {"type": "LineString", "coordinates": [[160, 196], [132, 180]]}, "properties": {"id": 65, "type": "EDGE", "edgeType": "TRAIL"}}, {"type": "Feature", "geometry": {"type": "LineString", "coordinates": [[132, 180], [112, 164]]}, "properties": {"id": 66, "type": "EDGE", "edgeType": "TRAIL"}}]}